ONEWEB-0142             
1 47288U 20100AG  26063.40626914 -.00000214  00000+0 -63015-3 0  9997
2 47288  87.8998  11.4651 0002165  75.2531 284.8837 13.12442754250926
ONEWEB-0143             
1 47289U 20100AH  26063.34004413 -.00000379  00000+0 -10878-2 0  9995
2 47289  87.8996  11.4747 0001811  78.7492 281.3840 13.12442621250897
ONEWEB-0144             
1 47290U 20100AJ  26063.38747701  .00001295  00000+0  35642-2 0  9997
2 47290  87.8999  11.4350 0002295  83.4726 276.6664 13.12450025250823
ONEWEB-0145             
1 47291U 20100AK  26063.35868638 -.00000055  00000+0 -18823-3 0  9996
2 47291  87.8997  11.4791 0001920  80.8408 279.2938 13.12442881251019
ONEWEB-0146             
1 47292U 20100AL  26063.35527872 -.00000150  00000+0 -45349-3 0  9998
2 47292  87.8999  11.4647 0001494  82.0477 278.0821 13.12443195250924
ONEWEB-0147             
1 47293U 20100AM  26063.39765558  .00000110  00000+0  27013-3 0  9990
2 47293  87.9000  11.4362 0001883  89.0476 271.0869 13.12441649250827
ONEWEB-0115             
1 48042U 21025A   26063.27916678  .00000142  00000+0  35354-3 0  9990
2 48042  87.9049 341.0832 0001677  79.2755 280.8563 13.13470093239821
ONEWEB-0152             
1 48043U 21025B   26063.29270924  .00000341  00000+0  89859-3 0  9990
2 48043  87.9044 341.0824 0001599  80.4592 279.6718 13.13469423239782
ONEWEB-0153             
1 48044U 21025C   26063.27070357 -.00000088  00000+0 -27473-3 0  9991
2 48044  87.9041 341.0921 0001826  77.5945 282.5388 13.13470232239775
ONEWEB-0154             
1 48045U 21025D   26063.26731414 -.00000151  00000+0 -44923-3 0  9999
2 48045  87.9041 341.0905 0001720  82.6472 277.4852 13.13471362239733
ONEWEB-0116             
1 48046U 21025E   26063.30625157  .00000208  00000+0  53393-3 0  9993
2 48046  87.9050 341.0704 0001614  78.9422 281.1889 13.13468898239884
ONEWEB-0150             
1 48047U 21025F   26063.28255268  .00000178  00000+0  45226-3 0  9995
2 48047  87.9048 341.0723 0001759  72.1337 287.9984 13.13470055239770
ONEWEB-0107             
1 48048U 21025G   26063.28424411  .00000271  00000+0  70795-3 0  9997
2 48048  87.9048 341.0675 0002021  77.5587 282.5768 13.13469310239757
ONEWEB-0101             
1 48049U 21025H   26063.32318156 -.00000151  00000+0 -44862-3 0  9996
2 48049  87.9041 341.0859 0001851  81.2233 278.9106 13.13468826239739
ONEWEB-0113             
1 48050U 21025J   26063.30780639  .00000146  00000+0  36241-3 0  9999
2 48050  87.9049 341.0092 0001483  81.7252 278.4046 13.13973626239833
ONEWEB-0112             
1 48051U 21025K   26063.28932736  .00000318  00000+0  83460-3 0  9990
2 48051  87.9050 341.0640 0001939  84.4798 275.6552 13.13470528239829
ONEWEB-0156             
1 48052U 21025L   26063.29778982  .00000331  00000+0  87209-3 0  9993
2 48052  87.9049 341.0735 0001851  75.5182 284.6152 13.13469146239802
