[{"OBJECT_NAME":"ONEWEB-0142","OBJECT_ID":"2020-100AG","EPOCH":"2026-03-04T09:45:01.652832","MEAN_MOTION":13.12442754,"ECCENTRICITY":0.0002165,"INCLINATION":87.8998,"RA_OF_ASC_NODE":11.4651,"ARG_OF_PERICENTER":75.2531,"MEAN_ANOMALY":284.8837,"EPHEMERIS_TYPE":0,"CLASSIFICATION_TYPE":"U","NORAD_CAT_ID":47288,"ELEMENT_SET_NO":999,"REV_AT_EPOCH":25092,"BSTAR":-0.00063015,"MEAN_MOTION_DOT":-2.14e-6,"MEAN_MOTION_DDOT":0},{"OBJECT_NAME":"ONEWEB-0143","OBJECT_ID":"2020-100AH","EPOCH":"2026-03-04T08:09:39.812832","MEAN_MOTION":13.12442621,"ECCENTRICITY":0.0001812,"INCLINATION":87.8996,"RA_OF_ASC_NODE":11.4747,"ARG_OF_PERICENTER":78.7492,"MEAN_ANOMALY":281.384,"EPHEMERIS_TYPE":0,"CLASSIFICATION_TYPE":"U","NORAD_CAT_ID":47289,"ELEMENT_SET_NO":999,"REV_AT_EPOCH":25089,"BSTAR":-0.0010878,"MEAN_MOTION_DOT":-3.79e-6,"MEAN_MOTION_DDOT":0},{"OBJECT_NAME":"ONEWEB-0144","OBJECT_ID":"2020-100AJ","EPOCH":"2026-03-04T09:17:58.012800","MEAN_MOTION":13.12450025,"ECCENTRICITY":0.0002295,"INCLINATION":87.8999,"RA_OF_ASC_NODE":11.435,"ARG_OF_PERICENTER":83.4726,"MEAN_ANOMALY":276.6664,"EPHEMERIS_TYPE":0,"CLASSIFICATION_TYPE":"U","NORAD_CAT_ID":47290,"ELEMENT_SET_NO":999,"REV_AT_EPOCH":25082,"BSTAR":0.0035642,"MEAN_MOTION_DOT":1.295e-5,"MEAN_MOTION_DDOT":0},{"OBJECT_NAME":"ONEWEB-0145","OBJECT_ID":"2020-100AK","EPOCH":"2026-03-04T08:36:30.503232","MEAN_MOTION":13.12442881,"ECCENTRICITY":0.000192,"INCLINATION":87.8997,"RA_OF_ASC_NODE":11.4791,"ARG_OF_PERICENTER":80.8408,"MEAN_ANOMALY":279.2938,"EPHEMERIS_TYPE":0,"CLASSIFICATION_TYPE":"U","NORAD_CAT_ID":47291,"ELEMENT_SET_NO":999,"REV_AT_EPOCH":25101,"BSTAR":-0.00018823,"MEAN_MOTION_DOT":-5.5e-7,"MEAN_MOTION_DDOT":0},{"OBJECT_NAME":"ONEWEB-0146","OBJECT_ID":"2020-100AL","EPOCH":"2026-03-04T08:31:36.081408","MEAN_MOTION":13.12443194,"ECCENTRICITY":0.0001495,"INCLINATION":87.8999,"RA_OF_ASC_NODE":11.4647,"ARG_OF_PERICENTER":82.0477,"MEAN_ANOMALY":278.0821,"EPHEMERIS_TYPE":0,"CLASSIFICATION_TYPE":"U","NORAD_CAT_ID":47292,"ELEMENT_SET_NO":999,"REV_AT_EPOCH":25092,"BSTAR":-0.00045349,"MEAN_MOTION_DOT":-1.5e-6,"MEAN_MOTION_DDOT":0},{"OBJECT_NAME":"ONEWEB-0147","OBJECT_ID":"2020-100AM","EPOCH":"2026-03-04T09:32:37.442112","MEAN_MOTION":13.12441649,"ECCENTRICITY":0.0001883,"INCLINATION":87.9,"RA_OF_ASC_NODE":11.4362,"ARG_OF_PERICENTER":89.0476,"MEAN_ANOMALY":271.0869,"EPHEMERIS_TYPE":0,"CLASSIFICATION_TYPE":"U","NORAD_CAT_ID":47293,"ELEMENT_SET_NO":999,"REV_AT_EPOCH":25082,"BSTAR":0.00027013,"MEAN_MOTION_DOT":1.1e-6,"MEAN_MOTION_DDOT":0},{"OBJECT_NAME":"ONEWEB-0115","OBJECT_ID":"2021-025A","EPOCH":"2026-03-04T06:42:00.009792","MEAN_MOTION":13.13470093,"ECCENTRICITY":0.0001677,"INCLINATION":87.9049,"RA_OF_ASC_NODE":341.0832,"ARG_OF_PERICENTER":79.2755,"MEAN_ANOMALY":280.8563,"EPHEMERIS_TYPE":0,"CLASSIFICATION_TYPE":"U","NORAD_CAT_ID":48042,"ELEMENT_SET_NO":999,"REV_AT_EPOCH":23982,"BSTAR":0.00035354,"MEAN_MOTION_DOT":1.42e-6,"MEAN_MOTION_DDOT":0},{"OBJECT_NAME":"ONEWEB-0152","OBJECT_ID":"2021-025B","EPOCH":"2026-03-04T07:01:30.078336","MEAN_MOTION":13.13469423,"ECCENTRICITY":0.00016,"INCLINATION":87.9044,"RA_OF_ASC_NODE":341.0824,"ARG_OF_PERICENTER":80.4592,"MEAN_ANOMALY":279.6718,"EPHEMERIS_TYPE":0,"CLASSIFICATION_TYPE":"U","NORAD_CAT_ID":48043,"ELEMENT_SET_NO":999,"REV_AT_EPOCH":23978,"BSTAR":0.00089859,"MEAN_MOTION_DOT":3.41e-6,"MEAN_MOTION_DDOT":0},{"OBJECT_NAME":"ONEWEB-0153","OBJECT_ID":"2021-025C","EPOCH":"2026-03-04T06:29:48.788448","MEAN_MOTION":13.13470232,"ECCENTRICITY":0.0001826,"INCLINATION":87.9041,"RA_OF_ASC_NODE":341.0921,"ARG_OF_PERICENTER":77.5945,"MEAN_ANOMALY":282.5388,"EPHEMERIS_TYPE":0,"CLASSIFICATION_TYPE":"U","NORAD_CAT_ID":48044,"ELEMENT_SET_NO":999,"REV_AT_EPOCH":23977,"BSTAR":-0.00027473,"MEAN_MOTION_DOT":-8.8e-7,"MEAN_MOTION_DDOT":0},{"OBJECT_NAME":"ONEWEB-0154","OBJECT_ID":"2021-025D","EPOCH":"2026-03-04T06:24:55.941696","MEAN_MOTION":13.13471362,"ECCENTRICITY":0.000172,"INCLINATION":87.9041,"RA_OF_ASC_NODE":341.0905,"ARG_OF_PERICENTER":82.6472,"MEAN_ANOMALY":277.4852,"EPHEMERIS_TYPE":0,"CLASSIFICATION_TYPE":"U","NORAD_CAT_ID":48045,"ELEMENT_SET_NO":999,"REV_AT_EPOCH":23973,"BSTAR":-0.00044923,"MEAN_MOTION_DOT":-1.51e-6,"MEAN_MOTION_DDOT":0},{"OBJECT_NAME":"ONEWEB-0116","OBJECT_ID":"2021-025E","EPOCH":"2026-03-04T07:21:00.134784","MEAN_MOTION":13.13468898,"ECCENTRICITY":0.0001614,"INCLINATION":87.905,"RA_OF_ASC_NODE":341.0704,"ARG_OF_PERICENTER":78.9422,"MEAN_ANOMALY":281.1889,"EPHEMERIS_TYPE":0,"CLASSIFICATION_TYPE":"U","NORAD_CAT_ID":48046,"ELEMENT_SET_NO":999,"REV_AT_EPOCH":23988,"BSTAR":0.00053393,"MEAN_MOTION_DOT":2.08e-6,"MEAN_MOTION_DDOT":0},{"OBJECT_NAME":"ONEWEB-0150","OBJECT_ID":"2021-025F","EPOCH":"2026-03-04T06:46:52.550688","MEAN_MOTION":13.13470054,"ECCENTRICITY":0.000176,"INCLINATION":87.9048,"RA_OF_ASC_NODE":341.0723,"ARG_OF_PERICENTER":72.1337,"MEAN_ANOMALY":287.9984,"EPHEMERIS_TYPE":0,"CLASSIFICATION_TYPE":"U","NORAD_CAT_ID":48047,"ELEMENT_SET_NO":999,"REV_AT_EPOCH":23977,"BSTAR":0.00045226,"MEAN_MOTION_DOT":1.78e-6,"MEAN_MOTION_DDOT":0},{"OBJECT_NAME":"ONEWEB-0107","OBJECT_ID":"2021-025G","EPOCH":"2026-03-04T06:49:18.690240","MEAN_MOTION":13.1346931,"ECCENTRICITY":0.0002021,"INCLINATION":87.9048,"RA_OF_ASC_NODE":341.0675,"ARG_OF_PERICENTER":77.5587,"MEAN_ANOMALY":282.5768,"EPHEMERIS_TYPE":0,"CLASSIFICATION_TYPE":"U","NORAD_CAT_ID":48048,"ELEMENT_SET_NO":999,"REV_AT_EPOCH":23975,"BSTAR":0.00070795,"MEAN_MOTION_DOT":2.71e-6,"MEAN_MOTION_DDOT":0},{"OBJECT_NAME":"ONEWEB-0101","OBJECT_ID":"2021-025H","EPOCH":"2026-03-04T07:45:22.886784","MEAN_MOTION":13.13468826,"ECCENTRICITY":0.0001851,"INCLINATION":87.9041,"RA_OF_ASC_NODE":341.0859,"ARG_OF_PERICENTER":81.2233,"MEAN_ANOMALY":278.9106,"EPHEMERIS_TYPE":0,"CLASSIFICATION_TYPE":"U","NORAD_CAT_ID":48049,"ELEMENT_SET_NO":999,"REV_AT_EPOCH":23973,"BSTAR":-0.00044862,"MEAN_MOTION_DOT":-1.51e-6,"MEAN_MOTION_DDOT":0},{"OBJECT_NAME":"ONEWEB-0113","OBJECT_ID":"2021-025J","EPOCH":"2026-03-04T07:23:14.472096","MEAN_MOTION":13.13973626,"ECCENTRICITY":0.0001483,"INCLINATION":87.9049,"RA_OF_ASC_NODE":341.0092,"ARG_OF_PERICENTER":81.7252,"MEAN_ANOMALY":278.4046,"EPHEMERIS_TYPE":0,"CLASSIFICATION_TYPE":"U","NORAD_CAT_ID":48050,"ELEMENT_SET_NO":999,"REV_AT_EPOCH":23983,"BSTAR":0.00036241,"MEAN_MOTION_DOT":1.46e-6,"MEAN_MOTION_DDOT":0},{"OBJECT_NAME":"ONEWEB-0112","OBJECT_ID":"2021-025K","EPOCH":"2026-03-04T06:56:37.883040","MEAN_MOTION":13.13470528,"ECCENTRICITY":0.0001939,"INCLINATION":87.905,"RA_OF_ASC_NODE":341.064,"ARG_OF_PERICENTER":84.4798,"MEAN_ANOMALY":275.6552,"EPHEMERIS_TYPE":0,"CLASSIFICATION_TYPE":"U","NORAD_CAT_ID":48051,"ELEMENT_SET_NO":999,"REV_AT_EPOCH":23982,"BSTAR":0.0008346,"MEAN_MOTION_DOT":3.18e-6,"MEAN_MOTION_DDOT":0},{"OBJECT_NAME":"ONEWEB-0156","OBJECT_ID":"2021-025L","EPOCH":"2026-03-04T07:08:49.040448","MEAN_MOTION":13.13469146,"ECCENTRICITY":0.0001851,"INCLINATION":87.9049,"RA_OF_ASC_NODE":341.0735,"ARG_OF_PERICENTER":75.5182,"MEAN_ANOMALY":284.6152,"EPHEMERIS_TYPE":0,"CLASSIFICATION_TYPE":"U","NORAD_CAT_ID":48052,"ELEMENT_SET_NO":999,"REV_AT_EPOCH":23980,"BSTAR":0.00087209,"MEAN_MOTION_DOT":3.31e-6,"MEAN_MOTION_DDOT":0}]
